{"type": "FeatureCollection", "features": [ {"type": "Feature", "properties": {"norad_id": 33905, "name": "COSMOS 2251 DEB", "group": "cosmos-2251-debris", "lat": 59.64311692359612, "lon": 81.0314195362763, "alt_km": 747.2051615011433, "timestamp": "2025-12-26T19:22:39.302295+00:00", "meta": {"OBJECT_NAME": "COSMOS 2251 DEB", "OBJECT_ID": "1993-036DJ", "EPOCH": "2025-12-25T21:21:48.164256", "MEAN_MOTION": 14.35428413, "ECCENTRICITY": 0.0058089, "INCLINATION": 73.8868, "RA_OF_ASC_NODE": 292.3034, "ARG_OF_PERICENTER": 178.9773, "MEAN_ANOMALY": 239.5395, "EPHEMERIS_TYPE": 0, "CLASSIFICATION_TYPE": "U", "NORAD_CAT_ID": 33905, "ELEMENT_SET_NO": 999, "REV_AT_EPOCH": 87876, "BSTAR": 0.00053799, "MEAN_MOTION_DOT": 1.548e-05, "MEAN_MOTION_DDOT": 0}, "tle": {"line1": "1 33905U 93036DJ  25359.89014079  .00001548  00000+0  53799-3 0  9996", "line2": "2 33905  73.8868 292.3034 0058089 178.9773 239.5395 14.35428413878764"}}, "geometry": {"type": "Point", "coordinates": [81.0314195362763, 59.64311692359612]}}, {"type": "Feature", "properties": {"norad_id": 33906, "name": "COSMOS 2251 DEB", "group": "cosmos-2251-debris", "lat": 23.203832491910457, "lon": -58.20983393535298, "alt_km": 688.7425407417913, "timestamp": "2025-12-26T19:22:39.302306+00:00", "meta": {"OBJECT_NAME": "COSMOS 2251 DEB", "OBJECT_ID": "1993-036DK", "EPOCH": "2025-12-25T22:07:37.012224", "MEAN_MOTION": 14.57306917, "ECCENTRICITY": 0.0036915, "INCLINATION": 74.0302, "RA_OF_ASC_NODE": 296.4211, "ARG_OF_PERICENTER": 324.0836, "MEAN_ANOMALY": 96.415, "EPHEMERIS_TYPE": 0, "CLASSIFICATION_TYPE": "U", "NORAD_CAT_ID": 33906, "ELEMENT_SET_NO": 999, "REV_AT_EPOCH": 88200, "BSTAR": 0.0018801, "MEAN_MOTION_DOT": 8.57e-05, "MEAN_MOTION_DDOT": 0}, "tle": {"line1": "1 33906U 93036DK  25359.92195616  .00008570  00000+0  18801-2 0  9994", "line2": "2 33906  74.0302 296.4211 0036915 324.0836  96.4150 14.57306917882000"}}, "geometry": {"type": "Point", "coordinates": [-58.20983393535298, 23.203832491910457]}}, {"type": "Feature", "properties": {"norad_id": 33907, "name": "COSMOS 2251 DEB", "group": "cosmos-2251-debris", "lat": 74.04883045498937, "lon": 95.81408796567308, "alt_km": 712.4280137049382, "timestamp": "2025-12-26T19:22:39.302316+00:00", "meta": {"OBJECT_NAME": "COSMOS 2251 DEB", "OBJECT_ID": "1993-036DL", "EPOCH": "2025-12-26T11:07:59.162016", "MEAN_MOTION": 14.30635285, "ECCENTRICITY": 0.01119668, "INCLINATION": 74.0706, "RA_OF_ASC_NODE": 8.7228, "ARG_OF_PERICENTER": 60.0979, "MEAN_ANOMALY": 60.119, "EPHEMERIS_TYPE": 0, "CLASSIFICATION_TYPE": "U", "NORAD_CAT_ID": 33907, "ELEMENT_SET_NO": 999, "REV_AT_EPOCH": 86776, "BSTAR": 0.0020247111, "MEAN_MOTION_DOT": 5.643e-05, "MEAN_MOTION_DDOT": 0}, "tle": {"line1": "1 33907U 93036DL  25360.46387919  .00005643  00000+0  20247-2 0  9990", "line2": "2 33907  74.0706   8.7228 0111966  60.0979  60.1190 14.30635285867768"}}, "geometry": {"type": "Point", "coordinates": [95.81408796567308, 74.04883045498937]}}, {"type": "Feature", "properties": {"norad_id": 33908, "name": "COSMOS 2251 DEB", "group": "cosmos-2251-debris", "lat": 25.09442642604873, "lon": -171.39143703332385, "alt_km": 1027.4114522504278, "timestamp": "2025-12-26T19:22:39.302327+00:00", "meta": {"OBJECT_NAME": "COSMOS 2251 DEB", "OBJECT_ID": "1993-036DM", "EPOCH": "2025-12-26T12:25:28.029792", "MEAN_MOTION": 14.07458708, "ECCENTRICITY": 0.02221938, "INCLINATION": 73.8373, "RA_OF_ASC_NODE": 181.3169, "ARG_OF_PERICENTER": 202.3085, "MEAN_ANOMALY": 156.8274, "EPHEMERIS_TYPE": 0, "CLASSIFICATION_TYPE": "U", "NORAD_CAT_ID": 33908, "ELEMENT_SET_NO": 999, "REV_AT_EPOCH": 85667, "BSTAR": 0.0027110454, "MEAN_MOTION_DOT": 5.696e-05, "MEAN_MOTION_DDOT": 0}, "tle": {"line1": "1 33908U 93036DM  25360.51768553  .00005696  00000+0  27110-2 0  9998", "line2": "2 33908  73.8373 181.3169 0222193 202.3085 156.8274 14.07458708856673"}}, "geometry": {"type": "Point", "coordinates": [-171.39143703332385, 25.09442642604873]}}, {"type": "Feature", "properties": {"norad_id": 33911, "name": "COSMOS 2251 DEB", "group": "cosmos-2251-debris", "lat": -22.46101863986032, "lon": 127.68139797558558, "alt_km": 649.1820058455878, "timestamp": "2025-12-26T19:22:39.302337+00:00", "meta": {"OBJECT_NAME": "COSMOS 2251 DEB", "OBJECT_ID": "1993-036DQ", "EPOCH": "2025-12-26T13:32:35.142432", "MEAN_MOTION": 14.75214363, "ECCENTRICITY": 0.00140564, "INCLINATION": 74.0903, "RA_OF_ASC_NODE": 134.9269, "ARG_OF_PERICENTER": 65.426, "MEAN_ANOMALY": 60.9068, "EPHEMERIS_TYPE": 0, "CLASSIFICATION_TYPE": "U", "NORAD_CAT_ID": 33911, "ELEMENT_SET_NO": 999, "REV_AT_EPOCH": 88848, "BSTAR": 0.0023506185, "MEAN_MOTION_DOT": 0.00015924, "MEAN_MOTION_DDOT": 0}, "tle": {"line1": "1 33911U 93036DQ  25360.56429563  .00015924  00000+0  23506-2 0  9992", "line2": "2 33911  74.0903 134.9269 0014056  65.4260  60.9068 14.75214363888486"}}, "geometry": {"type": "Point", "coordinates": [127.68139797558558, -22.46101863986032]}}, {"type": "Feature", "properties": {"norad_id": 33912, "name": "COSMOS 2251 DEB", "group": "cosmos-2251-debris", "lat": 42.50216572015857, "lon": -31.986701346706003, "alt_km": 717.7074665198552, "timestamp": "2025-12-26T19:22:39.302347+00:00", "meta": {"OBJECT_NAME": "COSMOS 2251 DEB", "OBJECT_ID": "1993-036DR", "EPOCH": "2025-12-26T12:26:23.449344", "MEAN_MOTION": 14.51975431, "ECCENTRICITY": 0.00112584, "INCLINATION": 74.0335, "RA_OF_ASC_NODE": 163.7682, "ARG_OF_PERICENTER": 243.0347, "MEAN_ANOMALY": 181.9648, "EPHEMERIS_TYPE": 0, "CLASSIFICATION_TYPE": "U", "NORAD_CAT_ID": 33912, "ELEMENT_SET_NO": 999, "REV_AT_EPOCH": 88633, "BSTAR": 0.00085580235, "MEAN_MOTION_DOT": 3.432e-05, "MEAN_MOTION_DDOT": 0}, "tle": {"line1": "1 33912U 93036DR  25360.51832696  .00003432  00000+0  85580-3 0  9995", "line2": "2 33912  74.0335 163.7682 0011258 243.0347 181.9648 14.51975431886330"}}, "geometry": {"type": "Point", "coordinates": [-31.986701346706003, 42.50216572015857]}}, {"type": "Feature", "properties": {"norad_id": 33913, "name": "COSMOS 2251 DEB", "group": "cosmos-2251-debris", "lat": 45.827538967199686, "lon": 174.42711111820793, "alt_km": 756.016736518658, "timestamp": "2025-12-26T19:22:39.302358+00:00", "meta": {"OBJECT_NAME": "COSMOS 2251 DEB", "OBJECT_ID": "1993-036DS", "EPOCH": "2025-12-26T11:00:18.483264", "MEAN_MOTION": 14.48542567, "ECCENTRICITY": 0.00481656, "INCLINATION": 74.0331, "RA_OF_ASC_NODE": 157.941, "ARG_OF_PERICENTER": 257.9623, "MEAN_ANOMALY": 131.6534, "EPHEMERIS_TYPE": 0, "CLASSIFICATION_TYPE": "U", "NORAD_CAT_ID": 33913, "ELEMENT_SET_NO": 999, "REV_AT_EPOCH": 88656, "BSTAR": 0.00063925997, "MEAN_MOTION_DOT": 2.409e-05, "MEAN_MOTION_DDOT": 0}, "tle": {"line1": "1 33913U 93036DS  25360.45854726  .00002409  00000+0  63926-3 0  9990", "line2": "2 33913  74.0331 157.9410 0048165 257.9623 131.6534 14.48542567886566"}}, "geometry": {"type": "Point", "coordinates": [174.42711111820793, 45.827538967199686]}}, {"type": "Feature", "properties": {"norad_id": 33914, "name": "COSMOS 2251 DEB", "group": "cosmos-2251-debris", "lat": 69.554816838085, "lon": 122.00195400336557, "alt_km": 767.7447172453194, "timestamp": "2025-12-26T19:22:39.302368+00:00", "meta": {"OBJECT_NAME": "COSMOS 2251 DEB", "OBJECT_ID": "1993-036DT", "EPOCH": "2025-12-26T03:29:35.982240", "MEAN_MOTION": 13.71992842, "ECCENTRICITY": 0.03007747, "INCLINATION": 74.0912, "RA_OF_ASC_NODE": 353.0015, "ARG_OF_PERICENTER": 92.7934, "MEAN_ANOMALY": 341.7967, "EPHEMERIS_TYPE": 0, "CLASSIFICATION_TYPE": "U", "NORAD_CAT_ID": 33914, "ELEMENT_SET_NO": 999, "REV_AT_EPOCH": 84265, "BSTAR": 0.00027030331, "MEAN_MOTION_DOT": 3.19e-06, "MEAN_MOTION_DDOT": 0}, "tle": {"line1": "1 33914U 93036DT  25360.14555535  .00000319  00000+0  27030-3 0  9997", "line2": "2 33914  74.0912 353.0015 0300774  92.7934 341.7967 13.71992842842655"}}, "geometry": {"type": "Point", "coordinates": [122.00195400336557, 69.554816838085]}}, {"type": "Feature", "properties": {"norad_id": 33915, "name": "COSMOS 2251 DEB", "group": "cosmos-2251-debris", "lat": 1.5319028300461874, "lon": -172.1137423580833, "alt_km": 764.9755016226009, "timestamp": "2025-12-26T19:22:39.302379+00:00", "meta": {"OBJECT_NAME": "COSMOS 2251 DEB", "OBJECT_ID": "1993-036DU", "EPOCH": "2025-12-26T10:46:32.151936", "MEAN_MOTION": 14.35112163, "ECCENTRICITY": 0.01039793, "INCLINATION": 74.0429, "RA_OF_ASC_NODE": 8.9813, "ARG_OF_PERICENTER": 97.828, "MEAN_ANOMALY": 28.3094, "EPHEMERIS_TYPE": 0, "CLASSIFICATION_TYPE": "U", "NORAD_CAT_ID": 33915, "ELEMENT_SET_NO": 999, "REV_AT_EPOCH": 87954, "BSTAR": 0.00036000173, "MEAN_MOTION_DOT": 1.067e-05, "MEAN_MOTION_DDOT": 0}, "tle": {"line1": "1 33915U 93036DU  25360.44898324  .00001067  00000+0  36000-3 0  9995", "line2": "2 33915  74.0429   8.9813 0103979  97.8280  28.3094 14.35112163879547"}}, "geometry": {"type": "Point", "coordinates": [-172.1137423580833, 1.5319028300461874]}}, {"type": "Feature", "properties": {"norad_id": 33916, "name": "COSMOS 2251 DEB", "group": "cosmos-2251-debris", "lat": -17.9540813109301, "lon": -157.210037947588, "alt_km": 774.2186414080052, "timestamp": "2025-12-26T19:22:39.302389+00:00", "meta": {"OBJECT_NAME": "COSMOS 2251 DEB", "OBJECT_ID": "1993-036DV", "EPOCH": "2025-12-26T11:59:17.834208", "MEAN_MOTION": 13.68627159, "ECCENTRICITY": 0.03246999, "INCLINATION": 74.0518, "RA_OF_ASC_NODE": 17.9793, "ARG_OF_PERICENTER": 187.1665, "MEAN_ANOMALY": 294.2626, "EPHEMERIS_TYPE": 0, "CLASSIFICATION_TYPE": "U", "NORAD_CAT_ID": 33916, "ELEMENT_SET_NO": 999, "REV_AT_EPOCH": 84079, "BSTAR": 0.00030165761, "MEAN_MOTION_DOT": 3.52e-06, "MEAN_MOTION_DDOT": 0}, "tle": {"line1": "1 33916U 93036DV  25360.49951197  .00000352  00000+0  30166-3 0  9992", "line2": "2 33916  74.0518  17.9793 0324699 187.1665 294.2626 13.68627159840799"}}, "geometry": {"type": "Point", "coordinates": [-157.210037947588, -17.9540813109301]}}]}